[
    {
        "Altitude(m)": 624790.7817464613,
        "Argument of Periapsis(deg)": 0.0,
        "Eccentricity": 0.0,
        "Inclination(deg)": 60.0,
        "Latitude(deg)": -59.147075222744085,
        "Longitude(deg)": 46.034754632325225,
        "Mean Anomaly(deg)": -81.81819999999996,
        "RAAN(deg)": 220.00000000000003,
        "Satellite Name": "Test1 985",
        "Satellite Number": 985,
        "Semi-Major Axis(m)": 6980739.136638005,
        "Time(s)": 0
    },
    {
        "Altitude(m)": 624737.4362047332,
        "Argument of Periapsis(deg)": 0.00010418945913296404,
        "Eccentricity": 0.0,
        "Inclination(deg)": 60.0,
        "Latitude(deg)": -58.994528632391294,
        "Longitude(deg)": 47.15425443637387,
        "Mean Anomaly(deg)": -81.1980938545381,
        "RAAN(deg)": 219.99957995086027,
        "Satellite Name": "Test1 985",
        "Satellite Number": 985,
        "Semi-Major Axis(m)": 6980739.136638005,
        "Time(s)": 10
    }
]